{"type": "FeatureCollection", "features": [ {"type": "Feature", "properties": {"norad_id": 60989, "name": "SENTINEL-2C", "group": "resource", "lat": -47.86156486801546, "lon": 77.34932390008773, "alt_km": 796.4733095531092, "timestamp": "2025-12-21T09:37:22.306347+00:00", "meta": {"OBJECT_NAME": "SENTINEL-2C", "OBJECT_ID": "2024-157A", "EPOCH": "2025-12-21T04:48:52.493184", "MEAN_MOTION": 14.30820648, "ECCENTRICITY": 0.0001195, "INCLINATION": 98.5673, "RA_OF_ASC_NODE": 67.561, "ARG_OF_PERICENTER": 95.4997, "MEAN_ANOMALY": 264.6322, "EPHEMERIS_TYPE": 0, "CLASSIFICATION_TYPE": "U", "NORAD_CAT_ID": 60989, "ELEMENT_SET_NO": 999, "REV_AT_EPOCH": 6753, "BSTAR": 5.7471e-05, "MEAN_MOTION_DOT": 1.07e-06, "MEAN_MOTION_DDOT": 0}, "tle": {"line1": "1 60989U 24157A   25355.20060756  .00000107  00000+0  57471-4 0  9992", "line2": "2 60989  98.5673  67.5610 0001195  95.4997 264.6322 14.30820648 67538"}}, "geometry": {"type": "Point", "coordinates": [77.34932390008773, -47.86156486801546]}}, {"type": "Feature", "properties": {"norad_id": 61735, "name": "IONOSFERA-M 1", "group": "resource", "lat": -34.001500195578835, "lon": -128.86155000081396, "alt_km": 822.0478661643656, "timestamp": "2025-12-21T09:37:22.306357+00:00", "meta": {"OBJECT_NAME": "IONOSFERA-M 1", "OBJECT_ID": "2024-199A", "EPOCH": "2025-12-21T04:43:15.134016", "MEAN_MOTION": 14.22715778, "ECCENTRICITY": 5.52e-05, "INCLINATION": 98.7398, "RA_OF_ASC_NODE": 224.9798, "ARG_OF_PERICENTER": 11.1584, "MEAN_ANOMALY": 348.9606, "EPHEMERIS_TYPE": 0, "CLASSIFICATION_TYPE": "U", "NORAD_CAT_ID": 61735, "ELEMENT_SET_NO": 999, "REV_AT_EPOCH": 10239, "BSTAR": 4.1254e-05, "MEAN_MOTION_DOT": 4.8e-07, "MEAN_MOTION_DDOT": 0}, "tle": {"line1": "1 61735U 24199A   25355.19670294  .00000048  00000+0  41254-4 0  9996", "line2": "2 61735  98.7398 224.9798 0000552  11.1584 348.9606 14.22715778102396"}}, "geometry": {"type": "Point", "coordinates": [-128.86155000081396, -34.001500195578835]}}, {"type": "Feature", "properties": {"norad_id": 61736, "name": "IONOSFERA-M 2", "group": "resource", "lat": 31.10064079568447, "lon": 50.41941163208028, "alt_km": 813.5591808641339, "timestamp": "2025-12-21T09:37:22.306367+00:00", "meta": {"OBJECT_NAME": "IONOSFERA-M 2", "OBJECT_ID": "2024-199B", "EPOCH": "2025-12-21T05:33:07.543584", "MEAN_MOTION": 14.2271795, "ECCENTRICITY": 0.0001817, "INCLINATION": 98.7397, "RA_OF_ASC_NODE": 224.9266, "ARG_OF_PERICENTER": 99.6585, "MEAN_ANOMALY": 260.4798, "EPHEMERIS_TYPE": 0, "CLASSIFICATION_TYPE": "U", "NORAD_CAT_ID": 61736, "ELEMENT_SET_NO": 999, "REV_AT_EPOCH": 10552, "BSTAR": 4.3264e-05, "MEAN_MOTION_DOT": 5.3e-07, "MEAN_MOTION_DDOT": 0}, "tle": {"line1": "1 61736U 24199B   25355.23133731  .00000053  00000+0  43264-4 0  9991", "line2": "2 61736  98.7397 224.9266 0001817  99.6585 260.4798 14.22717950105525"}}, "geometry": {"type": "Point", "coordinates": [50.41941163208028, 31.10064079568447]}}, {"type": "Feature", "properties": {"norad_id": 63772, "name": "BIOMASS", "group": "resource", "lat": -63.18248007368788, "lon": -163.4172917721914, "alt_km": 676.932279492059, "timestamp": "2025-12-21T09:37:22.306377+00:00", "meta": {"OBJECT_NAME": "BIOMASS", "OBJECT_ID": "2025-090A", "EPOCH": "2025-12-21T01:44:01.476384", "MEAN_MOTION": 14.67531176, "ECCENTRICITY": 0.0001275, "INCLINATION": 98.0692, "RA_OF_ASC_NODE": 179.9608, "ARG_OF_PERICENTER": 86.9021, "MEAN_ANOMALY": 273.233, "EPHEMERIS_TYPE": 0, "CLASSIFICATION_TYPE": "U", "NORAD_CAT_ID": 63772, "ELEMENT_SET_NO": 999, "REV_AT_EPOCH": 3456, "BSTAR": 0.00016267, "MEAN_MOTION_DOT": 8.74e-06, "MEAN_MOTION_DDOT": 0}, "tle": {"line1": "1 63772U 25090A   25355.07223931  .00000874  00000+0  16267-3 0  9991", "line2": "2 63772  98.0692 179.9608 0001275  86.9021 273.2330 14.67531176 34561"}}, "geometry": {"type": "Point", "coordinates": [-163.4172917721914, -63.18248007368788]}}, {"type": "Feature", "properties": {"norad_id": 64694, "name": "GOSAT-GW (IBUKI GW)", "group": "resource", "lat": 33.46835166620342, "lon": 116.1216170754121, "alt_km": 666.3125186529751, "timestamp": "2025-12-21T09:37:22.306387+00:00", "meta": {"OBJECT_NAME": "GOSAT-GW (IBUKI GW)", "OBJECT_ID": "2025-141A", "EPOCH": "2025-12-21T04:03:02.159136", "MEAN_MOTION": 14.67560365, "ECCENTRICITY": 0.0001406, "INCLINATION": 98.0433, "RA_OF_ASC_NODE": 290.5297, "ARG_OF_PERICENTER": 85.7321, "MEAN_ANOMALY": 274.4044, "EPHEMERIS_TYPE": 0, "CLASSIFICATION_TYPE": "U", "NORAD_CAT_ID": 64694, "ELEMENT_SET_NO": 999, "REV_AT_EPOCH": 2573, "BSTAR": 0.00010391, "MEAN_MOTION_DOT": 5.42e-06, "MEAN_MOTION_DDOT": 0}, "tle": {"line1": "1 64694U 25141A   25355.16877499  .00000542  00000+0  10391-3 0  9990", "line2": "2 64694  98.0433 290.5297 0001406  85.7321 274.4044 14.67560365 25734"}}, "geometry": {"type": "Point", "coordinates": [116.1216170754121, 33.46835166620342]}}, {"type": "Feature", "properties": {"norad_id": 64876, "name": "IONOSFERA-M 3", "group": "resource", "lat": 26.736686465980156, "lon": 141.38376473745367, "alt_km": 819.8363074159561, "timestamp": "2025-12-21T09:37:22.306397+00:00", "meta": {"OBJECT_NAME": "IONOSFERA-M 3", "OBJECT_ID": "2025-155A", "EPOCH": "2025-12-21T03:50:17.638368", "MEAN_MOTION": 14.21442896, "ECCENTRICITY": 0.0001995, "INCLINATION": 98.5794, "RA_OF_ASC_NODE": 316.7881, "ARG_OF_PERICENTER": 46.422, "MEAN_ANOMALY": 313.7123, "EPHEMERIS_TYPE": 0, "CLASSIFICATION_TYPE": "U", "NORAD_CAT_ID": 64876, "ELEMENT_SET_NO": 999, "REV_AT_EPOCH": 2111, "BSTAR": 3.8666e-05, "MEAN_MOTION_DOT": 4.2e-07, "MEAN_MOTION_DDOT": 0}, "tle": {"line1": "1 64876U 25155A   25355.15992637  .00000042  00000+0  38666-4 0  9999", "line2": "2 64876  98.5794 316.7881 0001995  46.4220 313.7123 14.21442896 21117"}}, "geometry": {"type": "Point", "coordinates": [141.38376473745367, 26.736686465980156]}}, {"type": "Feature", "properties": {"norad_id": 64877, "name": "IONOSFERA-M 4", "group": "resource", "lat": -26.298665858955754, "lon": -38.77968060185229, "alt_km": 825.9549129150155, "timestamp": "2025-12-21T09:37:22.306407+00:00", "meta": {"OBJECT_NAME": "IONOSFERA-M 4", "OBJECT_ID": "2025-155B", "EPOCH": "2025-12-21T04:40:46.791264", "MEAN_MOTION": 14.2144402, "ECCENTRICITY": 0.0001399, "INCLINATION": 98.5793, "RA_OF_ASC_NODE": 316.7416, "ARG_OF_PERICENTER": 55.2558, "MEAN_ANOMALY": 304.8751, "EPHEMERIS_TYPE": 0, "CLASSIFICATION_TYPE": "U", "NORAD_CAT_ID": 64877, "ELEMENT_SET_NO": 999, "REV_AT_EPOCH": 2111, "BSTAR": 3.5083e-05, "MEAN_MOTION_DOT": 3.4e-07, "MEAN_MOTION_DDOT": 0}, "tle": {"line1": "1 64877U 25155B   25355.19498601  .00000034  00000+0  35083-4 0  9997", "line2": "2 64877  98.5793 316.7416 0001399  55.2558 304.8751 14.21444020 21110"}}, "geometry": {"type": "Point", "coordinates": [-38.77968060185229, -26.298665858955754]}}, {"type": "Feature", "properties": {"norad_id": 64899, "name": "MICROCARB", "group": "resource", "lat": -80.01742288406906, "lon": -162.44393152219405, "alt_km": 671.957864928132, "timestamp": "2025-12-21T09:37:22.306417+00:00", "meta": {"OBJECT_NAME": "MICROCARB", "OBJECT_ID": "2025-156A", "EPOCH": "2025-12-20T22:38:25.178208", "MEAN_MOTION": 14.72069142, "ECCENTRICITY": 0.0017533, "INCLINATION": 98.0017, "RA_OF_ASC_NODE": 70.157, "ARG_OF_PERICENTER": 120.0864, "MEAN_ANOMALY": 240.2085, "EPHEMERIS_TYPE": 0, "CLASSIFICATION_TYPE": "U", "NORAD_CAT_ID": 64899, "ELEMENT_SET_NO": 999, "REV_AT_EPOCH": 2174, "BSTAR": 8.5365e-05, "MEAN_MOTION_DOT": 4.88e-06, "MEAN_MOTION_DDOT": 0}, "tle": {"line1": "1 64899U 25156A   25354.94334697  .00000488  00000+0  85365-4 0  9999", "line2": "2 64899  98.0017  70.1570 0017533 120.0864 240.2085 14.72069142 21744"}}, "geometry": {"type": "Point", "coordinates": [-162.44393152219405, -80.01742288406906]}}, {"type": "Feature", "properties": {"norad_id": 64900, "name": "CO3D 3", "group": "resource", "lat": 3.5891777576989607, "lon": 71.17490341365759, "alt_km": 507.57930624369783, "timestamp": "2025-12-21T09:37:22.306427+00:00", "meta": {"OBJECT_NAME": "CO3D 3", "OBJECT_ID": "2025-156B", "EPOCH": "2025-12-21T04:52:03.965952", "MEAN_MOTION": 15.20208411, "ECCENTRICITY": 0.0001338, "INCLINATION": 97.4343, "RA_OF_ASC_NODE": 71.4489, "ARG_OF_PERICENTER": 79.5755, "MEAN_ANOMALY": 280.5631, "EPHEMERIS_TYPE": 0, "CLASSIFICATION_TYPE": "U", "NORAD_CAT_ID": 64900, "ELEMENT_SET_NO": 999, "REV_AT_EPOCH": 2249, "BSTAR": 0.0001795, "MEAN_MOTION_DOT": 3.821e-05, "MEAN_MOTION_DDOT": 0}, "tle": {"line1": "1 64900U 25156B   25355.20282368  .00003821  00000+0  17950-3 0  9997", "line2": "2 64900  97.4343  71.4489 0001338  79.5755 280.5631 15.20208411 22493"}}, "geometry": {"type": "Point", "coordinates": [71.17490341365759, 3.5891777576989607]}}, {"type": "Feature", "properties": {"norad_id": 64901, "name": "CO3D 4", "group": "resource", "lat": 2.736229444927307, "lon": 71.28666990187205, "alt_km": 508.78601430043454, "timestamp": "2025-12-21T09:37:22.306437+00:00", "meta": {"OBJECT_NAME": "CO3D 4", "OBJECT_ID": "2025-156C", "EPOCH": "2025-12-21T04:52:17.427936", "MEAN_MOTION": 15.2019907, "ECCENTRICITY": 0.0001245, "INCLINATION": 97.4342, "RA_OF_ASC_NODE": 71.4491, "ARG_OF_PERICENTER": 167.9533, "MEAN_ANOMALY": 192.1732, "EPHEMERIS_TYPE": 0, "CLASSIFICATION_TYPE": "U", "NORAD_CAT_ID": 64901, "ELEMENT_SET_NO": 999, "REV_AT_EPOCH": 2249, "BSTAR": 0.00018233, "MEAN_MOTION_DOT": 3.881e-05, "MEAN_MOTION_DDOT": 0}, "tle": {"line1": "1 64901U 25156C   25355.20297949  .00003881  00000+0  18233-3 0  9990", "line2": "2 64901  97.4342  71.4491 0001245 167.9533 192.1732 15.20199070 22499"}}, "geometry": {"type": "Point", "coordinates": [71.28666990187205, 2.736229444927307]}}]}